[{"OBJECT_NAME":"AEROCUBE 16B","OBJECT_ID":"2024-053D","EPOCH":"2026-03-08T13:18:31.603680","MEAN_MOTION":15.40573981,"ECCENTRICITY":0.00037566,"INCLINATION":49.9908,"RA_OF_ASC_NODE":115.4511,"ARG_OF_PERICENTER":293.4512,"MEAN_ANOMALY":66.6055,"EPHEMERIS_TYPE":0,"CLASSIFICATION_TYPE":"U","NORAD_CAT_ID":59291,"ELEMENT_SET_NO":999,"REV_AT_EPOCH":10565,"BSTAR":0.00056476312,"MEAN_MOTION_DOT":0.00023043,"MEAN_MOTION_DDOT":0},{"OBJECT_NAME":"FLOCK 4BE-28","OBJECT_ID":"2024-149BD","EPOCH":"2026-03-09T17:19:29.847072","MEAN_MOTION":15.4101972,"ECCENTRICITY":0.00035041,"INCLINATION":97.3779,"RA_OF_ASC_NODE":153.2276,"ARG_OF_PERICENTER":284.6486,"MEAN_ANOMALY":75.4372,"EPHEMERIS_TYPE":0,"CLASSIFICATION_TYPE":"U","NORAD_CAT_ID":60519,"ELEMENT_SET_NO":999,"REV_AT_EPOCH":8710,"BSTAR":0.00056831294,"MEAN_MOTION_DOT":0.00023409,"MEAN_MOTION_DDOT":0}]
